$$SOE
2460728.500000000, A.D. 2025-Feb-22 00:00:00.0000, -4.057256856124229E+08, 6.336001253185399E+07, 6.030094852088557E+07,
2460735.500000000, A.D. 2025-Mar-01 00:00:00.0000, -4.069832718877901E+08, 5.310025729096666E+07, 6.136685364914290E+07,
2460742.500000000, A.D. 2025-Mar-08 00:00:00.0000, -4.079644017935611E+08, 4.280439858721647E+07, 6.239107379501867E+07,
2460749.500000000, A.D. 2025-Mar-15 00:00:00.0000, -4.086682580724813E+08, 3.247941572341237E+07, 6.337289041147766E+07,
2460756.500000000, A.D. 2025-Mar-22 00:00:00.0000, -4.090941689148598E+08, 2.213231390763227E+07, 6.431160655027188E+07,
2460763.500000000, A.D. 2025-Mar-29 00:00:00.0000, -4.092416094350719E+08, 1.177012100836054E+07, 6.520654701837528E+07,
2460770.500000000, A.D. 2025-Apr-05 00:00:00.0000, -4.091102015210091E+08, 1.399885182466745E+06, 6.605705846307715E+07,
2460777.500000000, A.D. 2025-Apr-12 00:00:00.0000, -4.086997139802067E+08, -8.971326531426180E+06, 6.686250957014517E+07,
2460784.500000000, A.D. 2025-Apr-19 00:00:00.0000, -4.080100631744813E+08, -1.933642954577400E+07, 6.762229132131983E+07,
2460791.500000000, A.D. 2025-Apr-26 00:00:00.0000, -4.070413138774801E+08, -2.968832319206275E+07, 6.833581727167672E+07,
2460798.500000000, A.D. 2025-May-03 00:00:00.0000, -4.057936802447117E+08, -4.001989230819596E+07, 6.900252383963718E+07,
2460805.500000000, A.D. 2025-May-10 00:00:00.0000, -4.042675268677675E+08, -5.032400894011718E+07, 6.962187060858159E+07,
2460812.500000000, A.D. 2025-May-17 00:00:00.0000, -4.024633698745286E+08, -6.059353420305416E+07, 7.019334063364658E+07,
2460819.500000000, A.D. 2025-May-24 00:00:00.0000, -4.003818778991170E+08, -7.082132036210561E+07, 7.071644073333046E+07,
2460826.500000000, A.D. 2025-May-31 00:00:00.0000, -3.980238725010087E+08, -8.100021282703175E+07, 7.119070175290132E+07,
2460833.500000000, A.D. 2025-Jun-07 00:00:00.0000, -3.953903284308684E+08, -9.112305086279631E+07, 7.161567893461074E+07,
2460840.500000000, A.D. 2025-Jun-14 00:00:00.0000, -3.924823761044809E+08, -1.011826676901300E+08, 7.199095255690221E+07,
2460847.500000000, A.D. 2025-Jun-21 00:00:00.0000, -3.893013050670705E+08, -1.111718932554810E+08, 7.231612846413161E+07,
2460854.500000000, A.D. 2025-Jun-28 00:00:00.0000, -3.858485653189703E+08, -1.210835579117286E+08, 7.259083834482974E+07,
2460861.500000000, A.D. 2025-Jul-05 00:00:00.0000, -3.821257680148523E+08, -1.309104948581068E+08, 7.281474007367736E+07,
2460868.500000000, A.D. 2025-Jul-12 00:00:00.0000, -3.781346867217360E+08, -1.406455421515854E+08, 7.298751815993541E+07,
2460875.500000000, A.D. 2025-Jul-19 00:00:00.0000, -3.738772590423421E+08, -1.502815448731809E+08, 7.310888423781344E+07,
2460882.500000000, A.D. 2025-Jul-26 00:00:00.0000, -3.693555883910975E+08, -1.598113575134873E+08, 7.317857757525276E+07,
2460889.500000000, A.D. 2025-Aug-02 00:00:00.0000, -3.645719458538197E+08, -1.692278465625401E+08, 7.319636559715073E+07,
2460896.500000000, A.D. 2025-Aug-09 00:00:00.0000, -3.595287721029335E+08, -1.785238933252444E+08, 7.316204441968429E+07,
2460903.500000000, A.D. 2025-Aug-16 00:00:00.0000, -3.542286792858822E+08, -1.876923970323618E+08, 7.307543938338989E+07,
2460910.500000000, A.D. 2025-Aug-23 00:00:00.0000, -3.486744525883054E+08, -1.967262782374144E+08, 7.293640555936158E+07,
2460917.500000000, A.D. 2025-Aug-30 00:00:00.0000, -3.428690511366103E+08, -2.056184817921215E+08, 7.274482825649679E+07,
2460924.500000000, A.D. 2025-Sep-06 00:00:00.0000, -3.368156096504987E+08, -2.143619784066673E+08, 7.250062374108192E+07,
2460931.500000000, A.D. 2025-Sep-13 00:00:00.0000, -3.305174425081998E+08, -2.229497672853263E+08, 7.220374011849660E+07,
2460938.500000000, A.D. 2025-Sep-20 00:00:00.0000, -3.239780469447863E+08, -2.313748814905314E+08, 7.185415794252324E+07,
2460945.500000000, A.D. 2025-Sep-27 00:00:00.0000, -3.172011043186203E+08, -2.396303929306410E+08, 7.145189070960367E+07,
2460952.500000000, A.D. 2025-Oct-04 00:00:00.0000, -3.101904814534605E+08, -2.477094164371139E+08, 7.099698546628195E+07,
2460959.500000000, A.D. 2025-Oct-11 00:00:00.0000, -3.029502324186947E+08, -2.556051138795819E+08, 7.048952348554787E+07,
2460966.500000000, A.D. 2025-Oct-18 00:00:00.0000, -2.954846004527797E+08, -2.633106986002469E+08, 6.992962096224724E+07,
2460973.500000000, A.D. 2025-Oct-25 00:00:00.0000, -2.877980198798969E+08, -2.708194401640388E+08, 6.931742971468750E+07,
2460980.500000000, A.D. 2025-Nov-01 00:00:00.0000, -2.798951179700095E+08, -2.781246694156665E+08, 6.865313788918304E+07,
2460987.500000000, A.D. 2025-Nov-08 00:00:00.0000, -2.717807166966495E+08, -2.852197838806962E+08, 6.793697066064043E+07,
2460994.500000000, A.D. 2025-Nov-15 00:00:00.0000, -2.634598342327662E+08, -2.920982535742968E+08, 6.716919090941188E+07,
2461001.500000000, A.D. 2025-Nov-22 00:00:00.0000, -2.549376857696728E+08, -2.987536270015891E+08, 6.635009985377771E+07,
2461008.500000000, A.D. 2025-Nov-29 00:00:00.0000, -2.462196837990241E+08, -3.051795362165104E+08, 6.548003774256345E+07,
2461015.500000000, A.D. 2025-Dec-06 00:00:00.0000, -2.373114401193243E+08, -3.113697010747480E+08, 6.455938480224784E+07,
2461022.500000000, A.D. 2025-Dec-13 00:00:00.0000, -2.282187691144723E+08, -3.173179360509394E+08, 6.358856211927708E+07,
2461029.500000000, A.D. 2025-Dec-20 00:00:00.0000, -2.189476887917087E+08, -3.230181585993704E+08, 6.256803221733843E+07,
2461036.500000000, A.D. 2025-Dec-27 00:00:00.0000, -2.095044206337067E+08, -3.284643964701446E+08, 6.149829963723193E+07,
2461043.500000000, A.D. 2026-Jan-03 00:00:00.0000, -1.998953897057519E+08, -3.336507945991482E+08, 6.037991160077834E+07,
2461050.500000000, A.D. 2026-Jan-10 00:00:00.0000, -1.901272248908825E+08, -3.385716222518240E+08, 5.921345869115162E+07,
2461057.500000000, A.D. 2026-Jan-17 00:00:00.0000, -1.802067590027339E+08, -3.432212805111807E+08, 5.799957551825514E+07,
2461064.500000000, A.D. 2026-Jan-24 00:00:00.0000, -1.701410286793883E+08, -3.475943100844888E+08, 5.673894136080813E+07,
2461071.500000000, A.D. 2026-Jan-31 00:00:00.0000, -1.599372740150804E+08, -3.516853994315876E+08, 5.543228077903931E+07,
2461078.500000000, A.D. 2026-Feb-07 00:00:00.0000, -1.496029378475641E+08, -3.554893932658657E+08, 5.408036418394493E+07,
2461085.500000000, A.D. 2026-Feb-14 00:00:00.0000, -1.391456644263560E+08, -3.590013014353591E+08, 5.268400833454746E+07,
2461092.500000000, A.D. 2026-Feb-21 00:00:00.0000, -1.285732970519035E+08, -3.622163075977325E+08, 5.124407677041094E+07,
2461099.500000000, A.D. 2026-Feb-28 00:00:00.0000, -1.178938757476285E+08, -3.651297765245646E+08, 4.976148036849874E+07,
2461106.500000000, A.D. 2026-Mar-07 00:00:00.0000, -1.071156369993957E+08, -3.677372619717541E+08, 4.823717804867759E+07,
2461113.500000000, A.D. 2026-Mar-14 00:00:00.0000, -9.624701276209757E+07, -3.700345174357492E+08, 4.667217717761762E+07,
2461120.500000000, A.D. 2026-Mar-21 00:00:00.0000, -8.529662692717639E+07, -3.720175068847184E+08, 4.506753373992610E+07,
2461127.500000000, A.D. 2026-Mar-28 00:00:00.0000, -7.427329123814520E+07, -3.736824144201849E+08, 4.342435254026741E+07,
2461134.500000000, A.D. 2026-Apr-04 00:00:00.0000, -6.318600123547836E+07, -3.750256538156284E+08, 4.174378740787958E+07,
2461141.500000000, A.D. 2026-Apr-11 00:00:00.0000, -5.204393193469522E+07, -3.760438782701246E+08, 4.002704134356987E+07,
2461148.500000000, A.D. 2026-Apr-18 00:00:00.0000, -4.085643305598350E+07, -3.767339903592471E+08, 3.827536658835045E+07,
2461155.500000000, A.D. 2026-Apr-25 00:00:00.0000, -2.963302373692492E+07, -3.770931521422783E+08, 3.649006460497472E+07,
2461162.500000000, A.D. 2026-May-02 00:00:00.0000, -1.838338667568156E+07, -3.771187954281464E+08, 3.467248596173871E+07,
2461169.500000000, A.D. 2026-May-09 00:00:00.0000, -7.117361559906262E+06, -3.768086322376482E+08, 3.282403009661588E+07,
2461176.500000000, A.D. 2026-May-16 00:00:00.0000, 4.155062614703052E+06, -3.761606652924597E+08, 3.094614493324333E+07,
2461183.500000000, A.D. 2026-May-23 00:00:00.0000, 1.542375640430180E+07, -3.751731974744902E+08, 2.904032642222492E+07,
2461190.500000000, A.D. 2026-May-30 00:00:00.0000, 2.667845789117340E+07, -3.738448398983359E+08, 2.710811821885017E+07,
2461197.500000000, A.D. 2026-Jun-06 00:00:00.0000, 3.790877946823156E+07, -3.721745218292245E+08, 2.515111125286333E+07,
2461204.500000000, A.D. 2026-Jun-13 00:00:00.0000, 4.910421711138694E+07, -3.701615022060013E+08, 2.317094286474328E+07,
2461211.500000000, A.D. 2026-Jun-20 00:00:00.0000, 6.025416164669950E+07, -3.678053798012829E+08, 2.116929578855497E+07,
2461218.500000000, A.D. 2026-Jun-27 00:00:00.0000, 7.134791031789359E+07, -3.651061023135307E+08, 1.914789710435636E+07,
2461225.500000000, A.D. 2026-Jul-04 00:00:00.0000, 8.237467865498215E+07, -3.620639751171266E+08, 1.710851709184992E+07,
2461232.500000000, A.D. 2026-Jul-11 00:00:00.0000, 9.332361289597890E+07, -3.586796697507395E+08, 1.505296794656266E+07,
2461239.500000000, A.D. 2026-Jul-18 00:00:00.0000, 1.041838030498512E+08, -3.549542320643238E+08, 1.298310234804240E+07,
2461246.500000000, A.D. 2026-Jul-25 00:00:00.0000, 1.149442966185604E+08, -3.508890899668727E+08, 1.090081187465911E+07,
2461253.500000000, A.D. 2026-Aug-01 00:00:00.0000, 1.255941130177603E+08, -3.464860607690522E+08, 8.808025254288167E+06,
2461260.500000000, A.D. 2026-Aug-08 00:00:00.0000, 1.361222588986184E+08, -3.417473581060420E+08, 6.706706427041069E+06,
2461267.500000000, A.D. 2026-Aug-15 00:00:00.0000, 1.465177447662586E+08, -3.366755979422464E+08, 4.598852418374881E+06,
2461274.500000000, A.D. 2026-Aug-22 00:00:00.0000, 1.567696021053385E+08, -3.312738023875273E+08, 2.486491191976905E+06,
2461281.500000000, A.D. 2026-Aug-29 00:00:00.0000, 1.668668986871993E+08, -3.255454026431055E+08, 3.716795799428076E+05,
2461288.500000000, A.D. 2026-Sep-05 00:00:00.0000, 1.767987541522821E+08, -3.194942438848619E+08, -1.743499139631867E+06,
2461295.500000000, A.D. 2026-Sep-12 00:00:00.0000, 1.865543582837639E+08, -3.131245895293434E+08, -3.856938037262782E+06,
$$EOE